[{"OBJECT_NAME":"BRITE-AUSTRIA","OBJECT_ID":"2013-009F","EPOCH":"2026-03-09T11:09:59.101632","MEAN_MOTION":14.3649602,"ECCENTRICITY":0.00103487,"INCLINATION":98.3955,"RA_OF_ASC_NODE":250.3783,"ARG_OF_PERICENTER":171.7863,"MEAN_ANOMALY":188.3495,"EPHEMERIS_TYPE":0,"CLASSIFICATION_TYPE":"U","NORAD_CAT_ID":39091,"ELEMENT_SET_NO":999,"REV_AT_EPOCH":68273,"BSTAR":0.00011657143,"MEAN_MOTION_DOT":3.0e-6,"MEAN_MOTION_DDOT":0},{"OBJECT_NAME":"FENGYUN 1C DEB","OBJECT_ID":"1999-025BUF","EPOCH":"2026-03-08T12:30:16.494336","MEAN_MOTION":14.49846192,"ECCENTRICITY":0.01892712,"INCLINATION":99.2057,"RA_OF_ASC_NODE":179.858,"ARG_OF_PERICENTER":202.3177,"MEAN_ANOMALY":156.9699,"EPHEMERIS_TYPE":0,"CLASSIFICATION_TYPE":"U","NORAD_CAT_ID":31443,"ELEMENT_SET_NO":999,"REV_AT_EPOCH":68184,"BSTAR":0.0028517893,"MEAN_MOTION_DOT":0.00013819,"MEAN_MOTION_DDOT":0}]
